stk.v.4.3 

BEGIN Ephemeris 
 
NumberOfEphemerisPoints		146 
ScenarioEpoch	    3 Sep 2020 21:43:45.129233301 
InterpolationMethod		Lagrange 
InterpolationOrder		5 
CentralBody				Earth 
CoordinateSystem			TEME 
CoordinateSystemEpoch	  3 Sep 2020 21:43:45.129233301 
DistanceUnit			Kilometers 
 
EphemerisTimePosVel 
 
       0.00000000   -3867.29178114   -6006.55223490       0.04211723  0.400116799 -0.246090812  7.457276420
 END Ephemeris 
